[{"OBJECT_NAME":"STARLINK-33886","OBJECT_ID":"2025-085T","EPOCH":"2026-03-09T06:48:49.690080","MEAN_MOTION":15.27564387,"ECCENTRICITY":0.00013958,"INCLINATION":43.0039,"RA_OF_ASC_NODE":32.7072,"ARG_OF_PERICENTER":276.5494,"MEAN_ANOMALY":83.5198,"EPHEMERIS_TYPE":0,"CLASSIFICATION_TYPE":"U","NORAD_CAT_ID":63681,"ELEMENT_SET_NO":999,"REV_AT_EPOCH":4881,"BSTAR":0.00074586508,"MEAN_MOTION_DOT":0.00020309,"MEAN_MOTION_DDOT":0},{"OBJECT_NAME":"COSMOS 1862","OBJECT_ID":"1987-055A","EPOCH":"2026-03-09T22:37:02.390592","MEAN_MOTION":15.30492139,"ECCENTRICITY":0.00097484,"INCLINATION":82.4856,"RA_OF_ASC_NODE":47.1862,"ARG_OF_PERICENTER":26.6325,"MEAN_ANOMALY":333.5414,"EPHEMERIS_TYPE":0,"CLASSIFICATION_TYPE":"U","NORAD_CAT_ID":18152,"ELEMENT_SET_NO":999,"REV_AT_EPOCH":8987,"BSTAR":0.00034125048,"MEAN_MOTION_DOT":0.00010107,"MEAN_MOTION_DDOT":0}]
